NORAD_CAT_ID,OBJECT_NAME,OBJECT_TYPE,EPOCH,MEAN_MOTION,ECCENTRICITY,INCLINATION,RA_OF_ASC_NODE,ARG_OF_PERICENTER,MEAN_ANOMALY,BSTAR,MEAN_MOTION_DOT,MEAN_MOTION_DDOT,TLE_LINE0,TLE_LINE1,TLE_LINE2,SEMIMAJOR_AXIS,PERIOD,APOGEE,PERIGEE,DECAYED
53564.0,STARLINK-4577,PAYLOAD,2023-07-01 01:55:55,15.0881001,0.0001482,53.2159,145.2893,110.8441,249.271,0.00016935,2.406e-05,0.0,0 STARLINK-4577,1 53564U 22101AP  23182.08050043  .00002406  00000-0  16935-3 0  9994,2 53564  53.2159 145.2893 0001482 110.8441 249.2710 15.08810010 48108,6917.972,95.439,540.862,538.812,0.0
53564.0,STARLINK-4577,PAYLOAD,2023-07-01 08:17:27,15.08826916,0.0001234,53.216,144.0995,91.1323,268.9811,2.149e-05,5.4e-07,0.0,0 STARLINK-4577,1 53564U 22101AP  23182.34545964  .00000054  00000-0  21490-4 0  9994,2 53564  53.2160 144.0995 0001234  91.1323 268.9811 15.08826916 48141,6917.92,95.438,540.639,538.932,0.0
53564.0,STARLINK-4577,PAYLOAD,2023-07-01 14:38:59,15.08835426,0.0001196,53.2161,142.9105,81.9594,278.1534,8.2309e-06,-1.57e-06,0.0,0 STARLINK-4577,1 53564U 22101AP  23182.61041571 -.00000157  00000-0  82309-5 0  9991,2 53564  53.2161 142.9105 0001196  81.9594 278.1534 15.08835426 48181,6917.894,95.438,540.587,538.932,0.0
53564.0,STARLINK-4577,PAYLOAD,2023-07-02 06:32:50,15.08842943,0.0001227,53.216,139.9367,81.547,278.5661,5.4483e-05,5.79e-06,0.0,0 STARLINK-4577,1 53564U 22101AP  23183.27280975  .00000579  00000-0  54483-4 0  9995,2 53564  53.2160 139.9367 0001227  81.5470 278.5661 15.08842943 48288,6917.871,95.437,540.585,538.888,0.0
53564.0,STARLINK-4577,PAYLOAD,2023-07-03 01:37:28,15.0883542,0.0001207,53.2162,136.3683,81.4128,278.7001,7.8477e-05,9.61e-06,0.0,0 STARLINK-4577,1 53564U 22101AP  23184.06769341  .00000961  00000-0  78477-4 0  9996,2 53564  53.2162 136.3683 0001207  81.4128 278.7001 15.08835420 48405,6917.894,95.438,540.594,538.924,0.0
53564.0,STARLINK-4577,PAYLOAD,2023-07-04 06:14:25,15.0884037,0.0001285,53.2165,131.0158,84.7363,275.3776,-2.5619e-05,-6.96e-06,0.0,0 STARLINK-4577,1 53564U 22101AP  23185.26001496 -.00000696  00000-0 -25619-4 0  9996,2 53564  53.2165 131.0158 0001285  84.7363 275.3776 15.08840370 48581,6917.879,95.438,540.633,538.855,0.0
53564.0,STARLINK-4577,PAYLOAD,2023-07-05 06:05:11,15.08844809,0.0001265,53.2163,126.5549,86.7713,273.3424,3.6865e-05,2.99e-06,0.0,0 STARLINK-4577,1 53564U 22101AP  23186.25360890  .00000299  00000-0  36865-4 0  9994,2 53564  53.2163 126.5549 0001265  86.7713 273.3424 15.08844809 48737,6917.866,95.437,540.606,538.856,0.0
53564.0,STARLINK-4577,PAYLOAD,2023-07-06 02:45:13,15.08831606,0.0001257,53.2161,122.6894,85.286,274.8276,9.4802e-06,-1.37e-06,0.0,0 STARLINK-4577,1 53564U 22101AP  23187.11474087 -.00000137  00000-0  94802-5 0  9992,2 53564  53.2161 122.6894 0001257  85.2860 274.8276 15.08831606 48869,6917.906,95.438,540.641,538.901,0.0
53564.0,STARLINK-4577,PAYLOAD,2023-07-07 04:11:23,15.08844461,0.0001229,53.2164,117.9323,90.6456,269.4677,1.3197e-05,-7.8e-07,0.0,0 STARLINK-4577,1 53564U 22101AP  23188.17457481 -.00000078  00000-0  13197-4 0  9999,2 53564  53.2164 117.9323 0001229  90.6456 269.4677 15.08844461 49023,6917.867,95.437,540.582,538.882,0.0
53564.0,STARLINK-4577,PAYLOAD,2023-07-07 23:16:01,15.08834467,0.0001227,53.2163,114.3631,90.8169,269.2963,-2.6715e-07,-2.92e-06,0.0,0 STARLINK-4577,1 53564U 22101AP  23188.96946304 -.00000292  00000-0 -26715-6 0  9994,2 53564  53.2163 114.3631 0001227  90.8169 269.2963 15.08834467 49140,6917.897,95.438,540.611,538.913,0.0
53564.0,STARLINK-4577,PAYLOAD,2023-07-08 04:02:10,15.088401,0.0001286,53.2174,113.4723,94.832,265.2819,5.8019e-05,6.36e-06,0.0,0 STARLINK-4577,1 53564U 22101AP  23189.16817787  .00000636  00000-0  58019-4 0  9999,2 53564  53.2174 113.4723 0001286  94.8320 265.2819 15.08840100 49172,6917.88,95.438,540.635,538.855,0.0
53564.0,STARLINK-4577,PAYLOAD,2023-07-08 11:59:07,15.08831961,0.0001408,53.2182,111.9861,88.2231,271.8922,-9.6461e-06,-4.41e-06,0.0,0 STARLINK-4577,1 53564U 22101AP  23189.49938687 -.00000441  00000-0 -96461-5 0  9998,2 53564  53.2182 111.9861 0001408  88.2231 271.8922 15.08831961 49220,6917.905,95.438,540.744,538.796,0.0
53564.0,STARLINK-4577,PAYLOAD,2023-07-09 11:49:53,15.08842359,0.0001342,53.2172,107.5246,86.9743,273.1402,-3.0021e-05,-7.66e-06,0.0,0 STARLINK-4577,1 53564U 22101AP  23190.49298355 -.00000766  00000-0 -30021-4 0  9990,2 53564  53.2172 107.5246 0001342  86.9743 273.1402 15.08842359 49374,6917.873,95.437,540.667,538.81,0.0
53564.0,STARLINK-4577,PAYLOAD,2023-07-11 00:23:46,15.088224,0.0001403,53.2166,100.6836,90.903,269.2123,0.00020473,2.97e-05,0.0,0 STARLINK-4577,1 53564U 22101AP  23192.01650977  .00002970  00000-0  20473-3 0  9998,2 53564  53.2166 100.6836 0001403  90.9030 269.2123 15.08822400 49605,6917.934,95.439,540.77,538.829,0.0
53564.0,STARLINK-4577,PAYLOAD,2023-07-11 03:34:32,15.08840468,0.0001437,53.2163,100.0886,91.01,269.1057,3.2154e-05,2.24e-06,0.0,0 STARLINK-4577,1 53564U 22101AP  23192.14898294  .00000224  00000-0  32154-4 0  9998,2 53564  53.2163 100.0886 0001437  91.0100 269.1057 15.08840468 49629,6917.879,95.438,540.738,538.75,0.0
53564.0,STARLINK-4577,PAYLOAD,2023-07-12 17:43:47,15.08833819,0.0001454,53.2168,92.9511,89.5718,270.544,-3.1997e-05,-7.97e-06,0.0,0 STARLINK-4577,1 53564U 22101AP  23193.73874700 -.00000797  00000-0 -31997-4 0  9991,2 53564  53.2168  92.9511 0001454  89.5718 270.5440 15.08833819 49864,6917.899,95.438,540.77,538.758,0.0
53564.0,STARLINK-4577,PAYLOAD,2023-07-13 20:45:21,15.08836759,0.0001331,53.2167,87.8983,75.9204,284.1936,-7.5333e-05,-1.487e-05,0.0,0 STARLINK-4577,1 53564U 22101AP  23194.86483044 -.00001487  00000-0 -75333-4 0  9992,2 53564  53.2167  87.8983 0001331  75.9204 284.1936 15.08836759 50030,6917.89,95.438,540.676,538.835,0.0
53564.0,STARLINK-4577,PAYLOAD,2023-07-15 01:22:17,15.08842435,0.0001329,53.2182,82.5467,83.7296,276.3847,8.5152e-05,1.068e-05,0.0,0 STARLINK-4577,1 53564U 22101AP  23196.05714298  .00001068  00000-0  85152-4 0  9996,2 53564  53.2182  82.5467 0001329  83.7296 276.3847 15.08842435 50213,6917.873,95.437,540.657,538.819,0.0
53564.0,STARLINK-4577,PAYLOAD,2023-07-16 02:48:27,15.08838285,0.0001171,53.217,77.7878,75.9141,284.1981,3.9542e-05,3.42e-06,0.0,0 STARLINK-4577,1 53564U 22101AP  23197.11698919  .00000342  00000-0  39542-4 0  9991,2 53564  53.2170  77.7878 0001171  75.9141 284.1981 15.08838285 50370,6917.886,95.438,540.561,538.941,0.0
53564.0,STARLINK-4577,PAYLOAD,2023-07-17 09:00:47,15.0884555,0.0001106,53.2175,72.1367,87.9842,272.1276,-2.0674e-05,-6.17e-06,0.0,0 STARLINK-4577,1 53564U 22101AP  23198.37554582 -.00000617  00000-0 -20674-4 0  9990,2 53564  53.2175  72.1367 0001106  87.9842 272.1276 15.08845550 50564,6917.863,95.437,540.494,538.963,0.0
53564.0,STARLINK-4577,PAYLOAD,2023-07-19 00:45:25,15.0884123,0.0001319,53.2181,64.6999,96.58,263.5342,-3.4446e-05,-8.36e-06,0.0,0 STARLINK-4577,1 53564U 22101AP  23200.03154866 -.00000836  00000-0 -34446-4 0  9993,2 53564  53.2181  64.6999 0001319  96.5800 263.5342 15.08841230 50811,6917.877,95.437,540.654,538.829,0.0
53564.0,STARLINK-4577,PAYLOAD,2023-07-19 18:14:40,15.08835022,0.0001307,53.2181,61.4289,99.3141,260.7999,-5.1466e-05,-1.107e-05,0.0,0 STARLINK-4577,1 53564U 22101AP  23200.76019440 -.00001107  00000-0 -51466-4 0  9994,2 53564  53.2181  61.4289 0001307  99.3141 260.7999 15.08835022 50925,6917.896,95.438,540.665,538.856,0.0
53564.0,STARLINK-4577,PAYLOAD,2023-07-21 00:27:00,15.08837601,0.0001245,53.2176,55.7802,108.2069,251.9058,5.377e-05,5.68e-06,0.0,0 STARLINK-4577,1 53564U 22101AP  23202.01875085  .00000568  00000-0  53770-4 0  9997,2 53564  53.2176  55.7802 0001245 108.2069 251.9058 15.08837601 51111,6917.888,95.438,540.614,538.891,0.0
53564.0,STARLINK-4577,PAYLOAD,2023-07-24 12:42:27,15.08836932,0.0001242,53.2161,40.0187,126.0598,234.0509,1.6438e-05,-2.6e-07,0.0,0 STARLINK-4577,1 53564U 22101AP  23205.52947924 -.00000026  00000-0  16438-4 0  9998,2 53564  53.2161  40.0187 0001242 126.0598 234.0509 15.08836932 51647,6917.89,95.438,540.614,538.896,0.0
53564.0,STARLINK-4577,PAYLOAD,2023-07-25 12:33:14,15.0883568,0.0001681,53.2139,35.5596,89.9309,270.1876,5.2034e-05,5.4e-06,0.0,0 STARLINK-4577,1 53564U 22101AP  23206.52308110  .00000540  00000-0  52034-4 0  9999,2 53564  53.2139  35.5596 0001681  89.9309 270.1876 15.08835680 51792,6917.894,95.438,540.921,538.596,0.0
53564.0,STARLINK-4577,PAYLOAD,2023-07-26 12:24:00,15.08886913,7.63e-05,53.2174,31.0991,106.6418,253.4658,-0.0005194,-8.555e-05,0.0,0 STARLINK-4577,1 53564U 22101AP  23207.51667313 -.00008555  00000-0 -51940-3 0  9992,2 53564  53.2174  31.0991 0000763 106.6418 253.4658 15.08886913 51943,6917.737,95.435,540.13,539.074,0.0
53564.0,STARLINK-4577,PAYLOAD,2023-07-26 15:34:46,15.08847008,0.0001116,53.2167,30.5075,71.8833,288.2281,8.6349e-06,-1.5e-06,0.0,0 STARLINK-4577,1 53564U 22101AP  23207.64915435 -.00000150  00000-0  86349-5 0  9992,2 53564  53.2167  30.5075 0001116  71.8833 288.2281 15.08847008 51961,6917.859,95.437,540.496,538.952,0.0
53564.0,STARLINK-4577,PAYLOAD,2023-07-27 12:14:48,15.08834516,8.45e-05,53.2177,26.6386,101.963,258.1457,-3.0112e-05,-7.67e-06,0.0,0 STARLINK-4577,1 53564U 22101AP  23208.51028200 -.00000767  00000-0 -30112-4 0  9995,2 53564  53.2177  26.6386 0000845 101.9630 258.1457 15.08834516 52097,6917.897,95.438,540.347,539.178,0.0
53564.0,STARLINK-4577,PAYLOAD,2023-07-28 12:05:35,15.08838927,0.000101,53.2189,22.1801,91.711,268.3998,-0.00010201,-1.911e-05,0.0,0 STARLINK-4577,1 53564U 22101AP  23209.50388679 -.00001911  00000-0 -10201-3 0  9992,2 53564  53.2189  22.1801 0001010  91.7110 268.3998 15.08838927 52247,6917.884,95.438,540.447,539.05,0.0
53564.0,STARLINK-4577,PAYLOAD,2023-07-29 10:20:59,15.08833623,9.26e-05,53.2222,18.019,109.7515,250.3577,9.9272e-05,1.292e-05,0.0,0 STARLINK-4577,1 53564U 22101AP  23210.43124207  .00001292  00000-0  99272-4 0  9997,2 53564  53.2222  18.0190 0000926 109.7515 250.3577 15.08833623 52381,6917.9,95.438,540.405,539.124,0.0
